STARLINK-30275          
1 57667U 23124E   26068.70438372  .00003262  00000+0  12225-3 0  9996
2 57667  53.1604 207.0027 0000929  81.4136 278.6970 15.30184111143566
TEVEL2-1                
1 63217U 25052H   26068.64782323  .00020683  00000+0  70600-3 0  9994
2 63217  97.3991 324.7682 0004767 104.8919 255.2849 15.30341923 54855
